METAR WSSS 190430Z 14006KT 080V180 9999 FEW018 FEW020TCU BKN280 30/25 Q1010 NOSIG
METAR WSSS 190400Z 14006KT 110V170 9999 FEW018 FEW020TCU BKN280 30/25 Q1011 NOSIG
METAR WSSS 190330Z 12008KT 080V160 9999 SCT018 FEW020TCU SCT280 30/25 Q1011 NOSIG
METAR WSSS 190300Z 13007KT 9999 FEW018TCU BKN300 30/25 Q1011 NOSIG
METAR WSSS 190230Z 14008KT 9999 FEW018 FEW020TCU BKN300 30/25 Q1011 NOSIG
METAR WSSS 190200Z 15006KT 120V180 9999 FEW018 FEW020TCU BKN300 30/24 Q1011 NOSIG
METAR WSSS 190130Z 13006G17KT 090V210 9999 FEW018 FEW020TCU BKN300 30/24 Q1011 NOSIG
METAR WSSS 190100Z 14005KT 090V180 9999 FEW018 BKN300 30/24 Q1011 NOSIG
METAR RKSI 190430Z 33007KT 290V350 CAVOK 31/20 Q1006 NOSIG
METAR RKSI 190400Z 33005KT CAVOK 31/20 Q1007 NOSIG
METAR RKSI 190330Z 29006KT 260V320 CAVOK 29/20 Q1007 NOSIG
METAR RKSI 190300Z 29007KT CAVOK 28/20 Q1007 NOSIG
METAR RKSI 190230Z 32005KT CAVOK 29/20 Q1007 NOSIG
METAR RKSI 190200Z 34007KT CAVOK 29/20 Q1008 NOSIG
METAR RKSI 190130Z 35003KT CAVOK 29/20 Q1008 NOSIG
METAR RKSI 190100Z 20003KT CAVOK 28/19 Q1008 NOSIG
METAR RJTT 190430Z 19008KT 9999 FEW030 BKN/// 29/22 Q1010 NOSIG
METAR RJTT 190400Z 16007KT 130V200 9999 FEW030 BKN/// 28/22 Q1010 NOSIG
METAR RJTT 190330Z 16005KT 110V220 9999 FEW030 BKN/// 27/22 Q1010 NOSIG
METAR RJTT 190300Z 15004KT 100V240 9999 FEW030 BKN/// 27/22 Q1010 NOSIG
METAR RJTT 190230Z 15006KT 100V200 9999 FEW020 BKN/// 26/22 Q1010 NOSIG
METAR RJTT 190200Z 11005KT 9999 FEW020 BKN/// 26/22 Q1010 NOSIG
METAR RJTT 190130Z 11006KT 9999 FEW020 BKN/// 26/22 Q1010 NOSIG
METAR RJTT 190100Z 09005KT 9999 FEW015 BKN/// 25/21 Q1011 NOSIG
SPECI RKPK 190423Z 11007KT 9999 SCT015 BKN020 OVC150 26/23 Q1008 RMK CIG020
SPECI RKPK 190420Z 11007KT 9999 -RA SCT015 BKN020 OVC150 26/23 Q1008 RMK CIG020
SPECI RKPK 190416Z 12008KT 9999 -RA SCT015 BKN020 OVC150 26/23 Q1008 RMK CIG020
METAR RKPK 190400Z 13009KT 9999 SCT015 BKN025 OVC150 27/23 Q1008
SPECI RKPK 190305Z 14009KT 9999 SCT020 BKN025 OVC150 26/23 Q1009 RMK CIG025
METAR RKPK 190300Z 13009KT 9999 SCT020 BKN025 OVC150 26/23 Q1009
METAR RKPK 190200Z 14007KT 9999 SCT020 BKN030 OVC180 28/23 Q1009
METAR RKPK 190100Z 20004KT 9999 SCT020 BKN030 OVC180 27/22 Q1009

SPECI RKPK 190540Z 12009KT 9999 -RA SCT017 BKN025 OVC150 26/23 Q1008 RMK CIG025
METAR RKPK 190500Z 11006KT 9999 SCT015 BKN020 OVC150 27/22 Q1008
METAR WSSS 190530Z 14007KT 110V180 9999 FEW018TCU FEW020CB BKN280 31/25 Q1010 NOSIG
METAR WSSS 190500Z 15005KT 110V210 9999 FEW018TCU FEW020CB BKN280 31/25 Q1010 NOSIG
METAR RKSI 190530Z 31008KT 270V330 CAVOK 31/21 Q1006 NOSIG
METAR RKSI 190500Z 30008KT 260V330 CAVOK 30/21 Q1006 NOSIG
METAR RJTT 190530Z 19011KT 9999 FEW030 BKN/// 29/22 Q1010 NOSIG
METAR RJTT 190500Z 18011KT 9999 SCT030 BKN/// 28/21 Q1010 NOSIG

METAR RJTT 190730Z 19011KT 9999 FEW020 BKN025 BKN/// 27/22 Q1010 NOSIG
METAR RJTT 190700Z 19011KT 9999 FEW020 BKN025 BKN/// 27/21 Q1010 NOSIG
METAR RJTT 190630Z 18012KT 9999 FEW020 BKN025 BKN/// 27/22 Q1010 NOSIG
METAR RJTT 190600Z 19012KT 9999 FEW025 SCT030 BKN/// 28/21 Q1010 NOSIG
METAR RKSI 190730Z 29007KT CAVOK 29/21 Q1006 NOSIG
METAR RKSI 190700Z 32005KT 280V340 CAVOK 30/21 Q1005 NOSIG
METAR RKSI 190630Z 31006KT CAVOK 29/21 Q1005 NOSIG
METAR RKSI 190600Z 29008KT 260V320 CAVOK 30/21 Q1006 NOSIG
METAR WSSS 190730Z 16007KT 9999 VCSH FEW018TCU FEW020CB SCT300 31/25 Q1009 NOSIG
METAR WSSS 190700Z 16008KT 120V210 9999 FEW018TCU FEW020CB SCT280 31/25 Q1009 NOSIG
METAR WSSS 190630Z 19006KT 120V230 9999 FEW018TCU FEW020CB SCT280 32/25 Q1009 NOSIG
METAR WSSS 190600Z 18006KT 130V210 9999 FEW018TCU FEW020CB SCT280 31/25 Q1010 NOSIG
SPECI RKPK 190718Z 11006KT 9000 SCT015 BKN020 OVC120 26/23 Q1008 RMK CIG020
SPECI RKPK 190702Z 12007KT 9000 -RA SCT017 BKN025 OVC120 26/23 Q1008 RMK CIG025
METAR RKPK 190700Z 10007KT 9000 SCT017 BKN025 OVC120 26/23 Q1008
SPECI RKPK 190639Z 10007KT 9000 SCT017 BKN025 OVC120 26/23 Q1008 RMK CIG025
SPECI RKPK 190612Z 12008KT 9000 -RA SCT017 BKN025 OVC120 26/23 Q1008 RMK CIG025
METAR RKPK 190600Z 12008KT 9000 -RA SCT017 BKN025 OVC150 26/23 Q1008

METAR RKSI 190930Z 31006KT 8000 -RA BKN035 OVC120 23/22 Q1005 NOSIG
METAR RKSI 190900Z 04005KT 8000 2500NE RA BKN030 OVC120 23/22 Q1006 NOSIG
METAR RKSI 190830Z 26008KT 9999 -RA SCT045 BKN150 26/21 Q1006 NOSIG
METAR RKSI 190800Z 30007KT CAVOK 26/21 Q1005 NOSIG
METAR WSSS 190930Z 14009KT 9999 FEW018TCU FEW020CB BKN300 30/25 Q1008 NOSIG
METAR WSSS 190900Z 12009KT 090V150 9999 FEW020TCU BKN300 31/25 Q1008 NOSIG
METAR WSSS 190830Z 10011KT 9999 FEW018TCU FEW020CB SCT300 30/25 Q1009 NOSIG
METAR WSSS 190800Z 13008KT 100V170 9999 VCSH FEW018TCU FEW020CB SCT300 31/23 Q1008 NOSIG
METAR RJTT 190930Z 16009KT 9999 FEW015 BKN020 24/22 Q1011 NOSIG
METAR RJTT 190900Z 13007KT 9999 FEW015 BKN020 BKN/// 25/22 Q1010 NOSIG
METAR RJTT 190830Z 18008KT 9999 FEW020 BKN/// 26/22 Q1010 NOSIG
METAR RJTT 190800Z 19008KT 9999 FEW020 BKN/// 27/22 Q1010 NOSIG
METAR RKPK 190900Z 12006KT 8000 SCT010 BKN015 OVC120 25/23 Q1007
SPECI RKPK 190825Z 12005KT 9000 SCT010 BKN015 OVC120 25/23 Q1007 RMK CIG015
METAR RKPK 190800Z 13007KT 9000 -RA SCT010 BKN015 OVC120 25/23 Q1007

METAR WSSS 200200Z VRB02KT 9999 SCT016 FEW018TCU FEW020CB BKN300 29/26 Q1012 NOSIG
METAR WSSS 200130Z 34004KT 300V010 9999 FEW016 FEW018TCU FEW020CB BKN300 30/26 Q1012 NOSIG
METAR WSSS 200100Z 33004KT 290V350 9999 FEW016 FEW018TCU FEW020CB BKN300 28/26 Q1012 NOSIG
METAR WSSS 200030Z 33003KT 9000 FEW016 FEW018TCU FEW020CB BKN300 27/26 Q1012 NOSIG
METAR WSSS 200000Z VRB02KT 9000 FEW016 FEW018TCU FEW020CB SCT150 27/25 Q1012 NOSIG
METAR WSSS 192330Z 31001KT 9999 FEW016 FEW018TCU FEW020CB BKN300 27/25 Q1011 NOSIG
METAR WSSS 192300Z 33003KT 9999 FEW016 FEW018TCU FEW020CB BKN300 26/25 Q1011 NOSIG
METAR WSSS 192230Z VRB02KT 9999 FEW018TCU FEW020CB BKN300 26/25 Q1010 NOSIG
METAR RKSI 200130Z 06010KT 8000 -RA SCT006 BKN020 OVC065 22/21 Q0996 NOSIG
METAR RKSI 200100Z 06010KT 4500 RA BR SCT005 BKN020 OVC065 21/21 Q0995 NOSIG
METAR RKSI 200030Z 06007KT 3500 RA BR SCT004 BKN020 OVC065 21/21 Q0996 NOSIG
METAR RKSI 200000Z 06008KT 3500 -RA BR SCT004 BKN020 OVC065 22/21 Q0996 NOSIG
METAR RKSI 192330Z 07007KT 040V110 3500 -RA BR SCT005 BKN020 OVC065 22/22 Q0995 NOSIG
METAR RKSI 192300Z 07007KT 030V100 3500 -RA BR SCT005 BKN020 OVC065 22/22 Q0995 NOSIG
METAR RKSI 192230Z 07007KT 030V110 3000 -RA BR SCT004 BKN020 OVC065 22/22 Q0995 NOSIG
METAR RJTT 200130Z 09006KT 9999 FEW007 BKN020 BKN035 24/22 Q1012 NOSIG
METAR RJTT 200100Z 10007KT 9999 FEW007 SCT020 BKN035 23/22 Q1012 NOSIG
METAR RJTT 200030Z 10009KT 9999 FEW007 BKN009 BKN035 23/21 Q1012 NOSIG
METAR RJTT 200000Z 10009KT 9999 -SHRA FEW007 BKN009 23/21 Q1012 TEMPO FM0150 4000 SHRA BR
METAR RJTT 192330Z 09009KT 9999 FEW007 BKN009 22/21 Q1012 NOSIG
METAR RJTT 192300Z 08009KT 9999 FEW007 BKN009 22/21 Q1013 NOSIG
METAR RJTT 192230Z 08011KT 9000 FEW006 BKN008 22/20 Q1013 NOSIG
METAR RKPK 200100Z 24012KT 9000 -RA FEW010 BKN018 OVC030 26/24 Q0999
METAR RKPK 200000Z 20015KT 6000 -RA FEW010 BKN015 OVC030 24/23 Q0999
METAR RKPK 192300Z 20015KT 4800 RA BR SCT007 BKN015 OVC030 23/23 Q0999
SPECI RKPK 192233Z 21017KT 4800 RA BR SCT007 BKN015 OVC025 23/23 Q0999 RMK CIG015
SPECI RKPK 192214Z 21019KT 4800 RA BR SCT006 BKN015 OVC025 23/23 Q1000 RMK CIG015
SPECI RKPK 192208Z 20019KT 4000 RA BR SCT006 BKN015 OVC025 23/23 Q0999 RMK CIG015

METAR RKSI 200200Z 06010KT 9999 SCT008 BKN025 OVC065 22/21 Q0996 NOSIG
METAR RKPK 200200Z 24012KT 8000 -RA FEW010 BKN018 OVC030 24/23 Q0999
METAR RJTT 200200Z 08007KT 9999 -SHRA FEW010 BKN018 BKN030 24/22 Q1012 NOSIG
